STARLINK-30806          
1 58180U 23167F   26068.21360033 -.00000178  00000+0  30671-5 0  9999
2 58180  43.0019 145.9682 0001648 259.5964 100.4702 15.26757589130918
FLOCK 4G-3              
1 62639U 25009AG  26068.80174065  .00011494  00000+0  43389-3 0  9993
2 62639  97.4062 151.4068 0001320 293.2042  66.9058 15.27179310 63727
